[{"OBJECT_NAME":"KOSEN-1","OBJECT_ID":"2021-102H","EPOCH":"2026-03-09T22:29:54.100608","MEAN_MOTION":15.25323573,"ECCENTRICITY":0.00138659,"INCLINATION":97.3334,"RA_OF_ASC_NODE":113.0569,"ARG_OF_PERICENTER":191.9191,"MEAN_ANOMALY":168.1721,"EPHEMERIS_TYPE":0,"CLASSIFICATION_TYPE":"U","NORAD_CAT_ID":49402,"ELEMENT_SET_NO":999,"REV_AT_EPOCH":23888,"BSTAR":0.00040411561,"MEAN_MOTION_DOT":0.00010142,"MEAN_MOTION_DDOT":0},{"OBJECT_NAME":"STARLINK-30805","OBJECT_ID":"2023-170J","EPOCH":"2026-03-09T22:00:01.999584","MEAN_MOTION":15.26740375,"ECCENTRICITY":0.00013342,"INCLINATION":43,"RA_OF_ASC_NODE":192.6551,"ARG_OF_PERICENTER":263.3155,"MEAN_ANOMALY":238.1531,"EPHEMERIS_TYPE":0,"CLASSIFICATION_TYPE":"U","NORAD_CAT_ID":58214,"ELEMENT_SET_NO":999,"REV_AT_EPOCH":578,"BSTAR":0.00084192649,"MEAN_MOTION_DOT":0.00022393,"MEAN_MOTION_DDOT":0}]
